ONEWEB-0504             
1 54122U 22138K   25325.08698240  .00000050  00000+0  93748-4 0  9993
2 54122  87.9212 346.3700 0002032 101.3523 258.7838 13.19727561149388
ONEWEB-0505             
1 54123U 22138L   25325.08381773  .00000117  00000+0  25982-3 0  9992
2 54123  87.9213 346.3591 0002348 100.7178 259.4219 13.19728153149364
ONEWEB-0506             
1 54124U 22138M   25325.05854116  .00000072  00000+0  14630-3 0  9994
2 54124  87.9218 346.3613 0002009  97.1821 262.9540 13.19728392149353
ONEWEB-0507             
1 54125U 22138N   25325.07907360  .00000159  00000+0  36466-3 0  9994
2 54125  87.9196 346.3962 0002049  94.5857 265.5510 13.19728396149406
ONEWEB-0508             
1 54126U 22138P   25325.07591551  .00000122  00000+0  27192-3 0  9992
2 54126  87.9209 346.3883 0002253  94.3238 265.8152 13.19723946149380
ONEWEB-0509             
1 54127U 22138Q   25325.05064683  .00000108  00000+0  23781-3 0  9996
2 54127  87.9220 346.3622 0002005  95.4838 264.6524 13.19728062149359
ONEWEB-0510             
1 54128U 22138R   25325.02758788  .00000094  00000+0  19963-3 0  9991
2 54128  87.9175 315.9504 0001337  80.0825 280.0459 13.20772408151800
ONEWEB-0511             
1 54129U 22138S   25325.12329984 -.00000005  00000+0 -45036-4 0  9990
2 54129  87.9217 346.3512 0001752 102.4281 257.7048 13.19727797149396
